start=new Date('2023-03-18T00:00:00.000Z').valueOf();
sats=[{"COUNTRY_CODE":"US","DECAY_DATE":null,"EPHEMERIS_TYPE":"0","OBJECT_NAME":"STARLINK-4139","REV_AT_EPOCH":"4181","OBJECT_ID":"2022-062BB","TLE_LINE1":"1 52879U 22062BB  23076.65574173  .00019707  00000-0  12529-2 0  9994","SITE":"AFETR","PERIAPSIS":"539.091","ARG_OF_PERICENTER":"72.1691","RA_OF_ASC_NODE":"218.4928","EPOCH":"2023-03-17T15:44:16.085472","ELEMENT_SET_NO":"999","SEMIMAJOR_AXIS":"6917.889","CENTER_NAME":"EARTH","ECCENTRICITY":"0.00009580","PERIOD":"95.438","BSTAR":"0.00125290000000","LAUNCH_DATE":"2022-06-17","GP_ID":"228357334","TIME_SYSTEM":"UTC","CLASSIFICATION_TYPE":"U","MEAN_MOTION":"15.08837184","OBJECT_TYPE":"PAYLOAD","FILE":"3863544","RCS_SIZE":"LARGE","APOAPSIS":"540.417","MEAN_ANOMALY":"287.9405","MEAN_ELEMENT_THEORY":"SGP4","MEAN_MOTION_DDOT":"0.0000000000000","REF_FRAME":"TEME","MEAN_MOTION_DOT":"0.00019707","INCLINATION":"53.2124","NORAD_CAT_ID":"52879","TLE_LINE2":"2 52879  53.2124 218.4928 0000958  72.1691 287.9405 15.08837184 41816"},{"EPOCH":"2023-03-17T15:49:33.811968","SEMIMAJOR_AXIS":"6917.887","ELEMENT_SET_NO":"999","PERIAPSIS":"538.741","RA_OF_ASC_NODE":"218.4793","ARG_OF_PERICENTER":"86.5879","OBJECT_ID":"2022-062BC","REV_AT_EPOCH":"4181","SITE":"AFETR","TLE_LINE1":"1 52880U 22062BC  23076.65941912  .00003832  00000-0  25873-3 0  9994","OBJECT_NAME":"STARLINK-4186","COUNTRY_CODE":"US","DECAY_DATE":null,"EPHEMERIS_TYPE":"0","MEAN_MOTION_DOT":"0.00003832","REF_FRAME":"TEME","MEAN_ELEMENT_THEORY":"SGP4","MEAN_MOTION_DDOT":"0.0000000000000","TLE_LINE2":"2 52880  53.2145 218.4793 0001461  86.5879 273.5280 15.08837982 41816","NORAD_CAT_ID":"52880","INCLINATION":"53.2145","RCS_SIZE":"LARGE","MEAN_ANOMALY":"273.5280","APOAPSIS":"540.762","OBJECT_TYPE":"PAYLOAD","FILE":"3863544","BSTAR":"0.00025873000000","PERIOD":"95.438","ECCENTRICITY":"0.00014610","CENTER_NAME":"EARTH","MEAN_MOTION":"15.08837982","CLASSIFICATION_TYPE":"U","TIME_SYSTEM":"UTC","LAUNCH_DATE":"2022-06-17","GP_ID":"228357584"},{"INCLINATION":"53.2140","TLE_LINE2":"2 52881  53.2140 217.8668 0001408  89.9855 270.1298 15.08851253 41839","NORAD_CAT_ID":"52881","MEAN_MOTION_DDOT":"0.0000000000000","MEAN_ELEMENT_THEORY":"SGP4","REF_FRAME":"TEME","MEAN_MOTION_DOT":"0.00025391","APOAPSIS":"540.685","MEAN_ANOMALY":"270.1298","RCS_SIZE":"LARGE","FILE":"3863544","OBJECT_TYPE":"PAYLOAD","GP_ID":"228355834","LAUNCH_DATE":"2022-06-17","CLASSIFICATION_TYPE":"U","MEAN_MOTION":"15.08851253","TIME_SYSTEM":"UTC","CENTER_NAME":"EARTH","ECCENTRICITY":"0.00014080","PERIOD":"95.437","BSTAR":"0.00160720000000","ELEMENT_SET_NO":"999","SEMIMAJOR_AXIS":"6917.846","EPOCH":"2023-03-17T19:05:38.296896","ARG_OF_PERICENTER":"89.9855","RA_OF_ASC_NODE":"217.8668","PERIAPSIS":"538.737","TLE_LINE1":"1 52881U 22062BD  23076.79558214  .00025391  00000-0  16072-2 0  9993","SITE":"AFETR","REV_AT_EPOCH":"4183","OBJECT_ID":"2022-062BD","DECAY_DATE":null,"COUNTRY_CODE":"US","EPHEMERIS_TYPE":"0","OBJECT_NAME":"STARLINK-4192"},{"GP_ID":"228356584","LAUNCH_DATE":"2022-06-17","MEAN_MOTION":"15.08838726","CLASSIFICATION_TYPE":"U","TIME_SYSTEM":"UTC","ECCENTRICITY":"0.00013690","PERIOD":"95.438","CENTER_NAME":"EARTH","BSTAR":"0.00015138000000","FILE":"3863544","OBJECT_TYPE":"PAYLOAD","APOAPSIS":"540.696","MEAN_ANOMALY":"275.9335","RCS_SIZE":"LARGE","INCLINATION":"53.2126","TLE_LINE2":"2 52882  53.2126 217.9152 0001369  84.1813 275.9335 15.08838726 41835","NORAD_CAT_ID":"52882","MEAN_ELEMENT_THEORY":"SGP4","MEAN_MOTION_DDOT":"0.0000000000000","MEAN_MOTION_DOT":"0.00002122","REF_FRAME":"TEME","DECAY_DATE":null,"EPHEMERIS_TYPE":"0","COUNTRY_CODE":"US","OBJECT_NAME":"STARLINK-4181","TLE_LINE1":"1 52882U 22062BE  23076.78453487  .00002122  00000-0  15138-3 0  9999","SITE":"AFETR","OBJECT_ID":"2022-062BE","REV_AT_EPOCH":"4183","RA_OF_ASC_NODE":"217.9152","ARG_OF_PERICENTER":"84.1813","PERIAPSIS":"538.802","ELEMENT_SET_NO":"999","SEMIMAJOR_AXIS":"6917.884","EPOCH":"2023-03-17T18:49:43.812768"},{"MEAN_MOTION_DOT":"0.00009076","REF_FRAME":"TEME","MEAN_MOTION_DDOT":"0.0000000000000","MEAN_ELEMENT_THEORY":"SGP4","TLE_LINE2":"2 52986  53.2167 298.5112 0001352  96.2436 263.8710 15.08841175 38586","NORAD_CAT_ID":"52986","INCLINATION":"53.2167","RCS_SIZE":"LARGE","MEAN_ANOMALY":"263.8710","APOAPSIS":"540.677","OBJECT_TYPE":"PAYLOAD","FILE":"3863544","BSTAR":"0.00058760000000","PERIOD":"95.437","ECCENTRICITY":"0.00013520","CENTER_NAME":"EARTH","TIME_SYSTEM":"UTC","CLASSIFICATION_TYPE":"U","MEAN_MOTION":"15.08841175","GP_ID":"228357093","LAUNCH_DATE":"2022-07-07","EPOCH":"2023-03-17T15:38:58.315776","SEMIMAJOR_AXIS":"6917.877","ELEMENT_SET_NO":"999","PERIAPSIS":"538.807","RA_OF_ASC_NODE":"298.5112","ARG_OF_PERICENTER":"96.2436","OBJECT_ID":"2022-076A","REV_AT_EPOCH":"3858","SITE":"AFETR","TLE_LINE1":"1 52986U 22076A   23076.65206384  .00009076  00000-0  58760-3 0  9990","OBJECT_NAME":"STARLINK-4260","EPHEMERIS_TYPE":"0","DECAY_DATE":null,"COUNTRY_CODE":"US"},{"MEAN_MOTION_DDOT":"0.0000000000000","MEAN_ELEMENT_THEORY":"SGP4","REF_FRAME":"TEME","MEAN_MOTION_DOT":"0.00007761","INCLINATION":"53.2146","NORAD_CAT_ID":"52987","TLE_LINE2":"2 52987  53.2146 309.8163 0001542  92.4349 267.6820 15.08835852 38408","RCS_SIZE":"LARGE","APOAPSIS":"540.825","MEAN_ANOMALY":"267.6820","OBJECT_TYPE":"PAYLOAD","FILE":"3863278","CENTER_NAME":"EARTH","PERIOD":"95.438","ECCENTRICITY":"0.00015420","BSTAR":"0.00050520000000","GP_ID":"228325793","LAUNCH_DATE":"2022-07-07","CLASSIFICATION_TYPE":"U","MEAN_MOTION":"15.08835852","TIME_SYSTEM":"UTC","EPOCH":"2023-03-17T08:39:00.523008","ELEMENT_SET_NO":"999","SEMIMAJOR_AXIS":"6917.893","PERIAPSIS":"538.691","ARG_OF_PERICENTER":"92.4349","RA_OF_ASC_NODE":"309.8163","REV_AT_EPOCH":"3840","OBJECT_ID":"2022-076B","TLE_LINE1":"1 52987U 22076B   23076.36042272  .00007761  00000-0  50520-3 0  9998","SITE":"AFETR","DECAY_DATE":null,"COUNTRY_CODE":"US","EPHEMERIS_TYPE":"0","OBJECT_NAME":"STARLINK-4259"},{"SEMIMAJOR_AXIS":"6917.842","ELEMENT_SET_NO":"999","EPOCH":"2023-03-17T21:55:12.581184","ARG_OF_PERICENTER":"92.8406","RA_OF_ASC_NODE":"297.3426","PERIAPSIS":"539.009","SITE":"AFETR","TLE_LINE1":"1 52988U 22076C   23076.91334006  .00014113  00000-0  90275-3 0  9999","REV_AT_EPOCH":"3862","OBJECT_ID":"2022-076C","OBJECT_NAME":"STARLINK-4291","DECAY_DATE":null,"EPHEMERIS_TYPE":"0","COUNTRY_CODE":"US","TLE_LINE2":"2 52988  53.2147 297.3426 0001008  92.8406 267.2701 15.08852689 38623","NORAD_CAT_ID":"52988","INCLINATION":"53.2147","REF_FRAME":"TEME","MEAN_MOTION_DOT":"0.00014113","MEAN_ELEMENT_THEORY":"SGP4","MEAN_MOTION_DDOT":"0.0000000000000","MEAN_ANOMALY":"267.2701","APOAPSIS":"540.404","RCS_SIZE":"LARGE","FILE":"3863544","OBJECT_TYPE":"PAYLOAD","CLASSIFICATION_TYPE":"U","MEAN_MOTION":"15.08852689","TIME_SYSTEM":"UTC","LAUNCH_DATE":"2022-07-07","GP_ID":"228356093","BSTAR":"0.00090275000000","CENTER_NAME":"EARTH","ECCENTRICITY":"0.00010080","PERIOD":"95.437"},{"MEAN_ANOMALY":"266.1212","APOAPSIS":"540.156","RCS_SIZE":"LARGE","NORAD_CAT_ID":"52989","TLE_LINE2":"2 52989  53.2142 307.4630 0000675  93.9857 266.1212 15.08858447 38487","INCLINATION":"53.2142","REF_FRAME":"TEME","MEAN_MOTION_DOT":"0.00016730","MEAN_MOTION_DDOT":"0.0000000000000","MEAN_ELEMENT_THEORY":"SGP4","MEAN_MOTION":"15.08858447","CLASSIFICATION_TYPE":"U","TIME_SYSTEM":"UTC","LAUNCH_DATE":"2022-07-07","GP_ID":"228357343","BSTAR":"0.00106620000000","CENTER_NAME":"EARTH","PERIOD":"95.436","ECCENTRICITY":"0.00006750","FILE":"3863544","OBJECT_TYPE":"PAYLOAD","ARG_OF_PERICENTER":"93.9857","RA_OF_ASC_NODE":"307.4630","PERIAPSIS":"539.222","SEMIMAJOR_AXIS":"6917.824","ELEMENT_SET_NO":"999","EPOCH":"2023-03-17T21:16:47.442144","OBJECT_NAME":"STARLINK-4293","EPHEMERIS_TYPE":"0","DECAY_DATE":null,"COUNTRY_CODE":"US","SITE":"AFETR","TLE_LINE1":"1 52989U 22076D   23076.88666021  .00016730  00000-0  10662-2 0  9999","REV_AT_EPOCH":"3848","OBJECT_ID":"2022-076D"},{"RCS_SIZE":"LARGE","APOAPSIS":"540.446","MEAN_ANOMALY":"275.4913","MEAN_ELEMENT_THEORY":"SGP4","MEAN_MOTION_DDOT":"0.0000000000000","MEAN_MOTION_DOT":"0.00012872","REF_FRAME":"TEME","INCLINATION":"53.2138","TLE_LINE2":"2 52990  53.2138 307.4784 0001083  84.6202 275.4913 15.08855928 38481","NORAD_CAT_ID":"52990","PERIOD":"95.437","ECCENTRICITY":"0.00010830","CENTER_NAME":"EARTH","BSTAR":"0.00082498000000","LAUNCH_DATE":"2022-07-07","GP_ID":"228357593","CLASSIFICATION_TYPE":"U","TIME_SYSTEM":"UTC","MEAN_MOTION":"15.08855928","OBJECT_TYPE":"PAYLOAD","FILE":"3863544","PERIAPSIS":"538.948","RA_OF_ASC_NODE":"307.4784","ARG_OF_PERICENTER":"84.6202","EPOCH":"2023-03-17T21:11:29.302656","ELEMENT_SET_NO":"999","SEMIMAJOR_AXIS":"6917.832","DECAY_DATE":null,"COUNTRY_CODE":"US","EPHEMERIS_TYPE":"0","OBJECT_NAME":"STARLINK-4286","OBJECT_ID":"2022-076E","REV_AT_EPOCH":"3848","TLE_LINE1":"1 52990U 22076E   23076.88297804  .00012872  00000-0  82498-3 0  9990","SITE":"AFETR"},{"BSTAR":"0.00077505000000","ECCENTRICITY":"0.00010640","PERIOD":"95.437","CENTER_NAME":"EARTH","TIME_SYSTEM":"UTC","CLASSIFICATION_TYPE":"U","MEAN_MOTION":"15.08848526","GP_ID":"228355843","LAUNCH_DATE":"2022-07-07","OBJECT_TYPE":"PAYLOAD","FILE":"3863544","RCS_SIZE":"LARGE","MEAN_ANOMALY":"258.2186","APOAPSIS":"540.455","MEAN_MOTION_DOT":"0.00012071","REF_FRAME":"TEME","MEAN_MOTION_DDOT":"0.0000000000000","MEAN_ELEMENT_THEORY":"SGP4","TLE_LINE2":"2 52991  53.2145 307.4956 0001064 101.8926 258.2186 15.08848526 38482","NORAD_CAT_ID":"52991","INCLINATION":"53.2145","OBJECT_NAME":"STARLINK-4285","DECAY_DATE":null,"COUNTRY_CODE":"US","EPHEMERIS_TYPE":"0","OBJECT_ID":"2022-076F","REV_AT_EPOCH":"3848","SITE":"AFETR","TLE_LINE1":"1 52991U 22076F   23076.87930173  .00012071  00000-0  77505-3 0  9997","PERIAPSIS":"538.983","RA_OF_ASC_NODE":"307.4956","ARG_OF_PERICENTER":"101.8926","EPOCH":"2023-03-17T21:06:11.669472","SEMIMAJOR_AXIS":"6917.854","ELEMENT_SET_NO":"999"}];
